{
  "stores": [
    {
      "name": "Elizabeth St. Cafe",
      "slug": "elizabeth-st",
      "url": "https://elizabethstreetcafe.com/austin/",
      "address": "1501 S. First St.",
      "city": "Austin",
      "state": "TX",
      "zip": 78704
    },
    {
      "name": "Avalon Diner",
      "slug": "avalon",
      "url": "https://www.avalondiner.com/",
      "address": "2417 Westheimer Rd.",
      "city": "Houston",
      "state": "TX",
      "zip": 77063
    },
    {
      "name": "Sunday in Brooklyn",
      "slug": "sunday-bk",
      "url": "https://www.sundayinbrooklyn.com/",
      "address": "348 Wythe Ave.",
      "city": "Brooklyn",
      "state": "NY",
      "zip": 11249
    },
    {
      "name": "Bistro 555",
      "slug": "bistro",
      "url": "https://www.bistro555.net/",
      "address": "13616 Memorial Dr.",
      "city": "Houston",
      "state": "TX",
      "zip": 77079
    },
    {
      "name": "Brave New Books",
      "slug": "brave-new-books",
      "url": "https://www.facebook.com/bravenewbookstore/",
      "address": "1904 Guadalupe St # B",
      "city": "Austin",
      "state": "TX",
      "zip": 78705
    },
    {
      "name": "BookWoman",
      "slug": "bookwoman",
      "url": "https://www.ebookwoman.com/",
      "address": "5501 N Lamar Blvd",
      "city": "Austin",
      "state": "TX",
      "zip": 78751
    },
    {
      "name": "Balcones Books",
      "slug": "balcones-books",
      "url": "https://balconesbooks.com/",
      "address": "5430, 3313 Hancock Dr",
      "city": "Austin",
      "state": "TX",
      "zip": 78731
    },
    {
      "name": "Recycled Reads",
      "slug": "recycled-reads",
      "url": "http://library.austintexas.gov/recycled-reads",
      "address": "5335 Burnet Rd",
      "city": "Austin",
      "state": "TX",
      "zip": 78756
    },
    {
      "name": "South Congress Books",
      "slug": "south-congress-books",
      "url": "https://southcongressbooks.com/",
      "address": "1608 S Congress Ave",
      "city": "Austin",
      "state": "TX",
      "zip": 78704
    },
    {
      "name": "12th Street Books",
      "slug": "12th-street-books",
      "url": "https://www.12thstreetbooks.com/",
      "address": "827 W 12th St",
      "city": "Austin",
      "state": "TX",
      "zip": 78701
    }
  ]
}
